STARLINK-2237           
1 48583U 21041AG  26068.43080850 -.00001469  00000+0 -79772-4 0  9993
2 48583  53.0553 142.7839 0001406  97.6803 262.4346 15.06400549265025
STRIX-5                 
1 65971U 25229A   26068.48916036  .00006129  00000+0  44900-3 0  9994
2 65971  41.9265 119.8574 0036941 120.2079 240.2413 15.03509399 21964
